OBJECT_NAME,OBJECT_ID,EPOCH,MEAN_MOTION,ECCENTRICITY,INCLINATION,RA_OF_ASC_NODE,ARG_OF_PERICENTER,MEAN_ANOMALY,EPHEMERIS_TYPE,CLASSIFICATION_TYPE,NORAD_CAT_ID,ELEMENT_SET_NO,REV_AT_EPOCH,BSTAR,MEAN_MOTION_DOT,MEAN_MOTION_DDOT
ONEWEB-0642,2023-029L,2026-06-13T07:22:40.675872,13.19724784,.00014047,87.9167,305.7500,124.0427,236.0839,0,U,55806,999,15839,-.3601666E-5,.12E-6,0
ONEWEB-0643,2023-029M,2026-06-13T06:17:25.687104,13.14503164,.00017628,87.8951,290.5126,121.7886,238.3416,0,U,55807,999,15887,.66639554E-3,.26E-5,0
ONEWEB-0644,2023-029N,2026-06-12T22:09:57.853728,13.19724178,.00016303,87.9163,305.8279,107.8962,252.2349,0,U,55808,999,15834,-.16109171E-3,-.52E-6,0
ONEWEB-0645,2023-029P,2026-06-12T20:52:37.758144,13.19724329,.00013748,87.9164,305.8356,95.7142,264.4148,0,U,55809,999,15833,-.44217499E-4,-.5E-7,0
ONEWEB-0646,2023-029Q,2026-06-13T02:45:11.806272,13.19725209,.00017022,87.9163,305.7870,106.5915,253.5405,0,U,55810,999,15835,.14922605E-3,.73E-6,0
ONEWEB-0648,2023-029R,2026-06-13T07:21:19.652544,13.14502554,.00010357,87.8962,290.4769,111.8908,248.2332,0,U,55811,999,15888,-.10051097E-2,-.36E-5,0
ONEWEB-0649,2023-029S,2026-06-13T03:21:34.369632,13.19724615,.00015686,87.9162,305.7798,99.8298,260.3012,0,U,55812,999,15839,-.21722697E-4,.4E-7,0
ONEWEB-0650,2023-029T,2026-06-13T03:14:43.975680,13.19724681,.00014546,87.9164,305.7832,113.3689,246.7597,0,U,55813,999,15836,.1984762E-4,.21E-6,0
ONEWEB-0652,2023-029U,2026-06-13T01:25:06.144960,13.14504588,.00020565,87.8958,290.5335,98.9543,261.1820,0,U,55814,999,15882,-.39584322E-3,-.134E-5,0
ONEWEB-0653,2023-029V,2026-06-13T06:31:06.634848,13.14503127,.0001879,87.8960,290.4891,96.9509,263.1834,0,U,55815,999,15888,.49452231E-3,.196E-5,0
ONEWEB-0654,2023-029W,2026-06-13T06:24:15.757056,13.14504199,.00021534,87.8959,290.4863,93.1129,267.0247,0,U,55816,999,15890,.79614994E-3,.308E-5,0
ONEWEB-0656,2023-029X,2026-06-13T06:21:41.001696,13.20772803,.00023303,87.9195,275.2113,93.4975,266.6425,0,U,55817,999,16063,.11933191E-3,.62E-6,0
ONEWEB-0657,2023-029Y,2026-06-13T03:07:56.346528,13.19724151,.00024981,87.9165,305.7828,105.0939,255.0471,0,U,55818,999,15837,-.14282012E-3,-.44E-6,0
ONEWEB-0658,2023-029Z,2026-06-13T04:50:17.293056,13.19724285,.00016054,87.9173,305.7439,109.6983,250.4323,0,U,55819,999,15839,.73996621E-4,.43E-6,0
ONEWEB-0660,2023-029AA,2026-06-12T20:44:14.745120,13.14503218,.00015816,87.8968,290.5594,95.8777,264.2533,0,U,55820,999,15883,.52768312E-4,.32E-6,0
ONEWEB-0661,2023-029AB,2026-06-13T06:42:32.507424,13.14502432,.00016654,87.8952,290.5219,92.4024,267.7296,0,U,55821,999,15887,.12918344E-3,.61E-6,0
ONEWEB-0662,2023-029AC,2026-06-12T20:35:06.910368,13.14502802,.00015719,87.8946,290.6124,96.2698,263.8611,0,U,55822,999,15886,-.13691291E-3,-.38E-6,0
ONEWEB-0663,2023-029AD,2026-06-13T05:21:32.259456,13.20869201,.00015301,87.9194,275.2913,104.1386,255.9918,0,U,55823,999,16062,-.16454102E-4,.6E-7,0
ONEWEB-0664,2023-029AE,2026-06-13T06:02:16.865376,13.20770425,.00018527,87.9179,275.2672,85.9902,274.1443,0,U,55824,999,16062,.15089171E-3,.74E-6,0
ONEWEB-0665,2023-029AF,2026-06-13T06:37:58.567584,13.14502664,.00015454,87.8953,290.5034,99.4517,260.6788,0,U,55825,999,15889,.229868E-3,.98E-6,0
ONEWEB-0666,2023-029AG,2026-06-13T05:52:35.241312,13.20771378,.00026394,87.9182,275.2582,107.4158,252.7264,0,U,55826,999,16063,.12180503E-3,.63E-6,0
ONEWEB-0667,2023-029AH,2026-06-13T05:45:19.412928,13.20771704,.00017981,87.9196,275.2166,96.8600,263.2738,0,U,55827,999,16062,.86054397E-4,.48E-6,0
ONEWEB-0669,2023-029AJ,2026-06-13T07:27:08.065728,13.20771767,.00023055,87.9189,275.2140,88.3281,271.8116,0,U,55828,999,16063,-.3678863E-5,.11E-6,0
ONEWEB-0670,2023-029AK,2026-06-13T02:26:47.296320,13.14502703,.00017237,87.8947,290.5557,88.2937,271.8390,0,U,55829,999,15889,.57976743E-3,.228E-5,0
ONEWEB-0671,2023-029AL,2026-06-13T02:54:16.346592,13.19723758,.00017022,87.9165,305.7860,95.5202,264.6125,0,U,55830,999,15836,.31732643E-4,.26E-6,0
ONEWEB-0672,2023-029AM,2026-06-13T05:30:45.794880,13.20772116,.00022385,87.9190,275.2234,100.0479,260.0907,0,U,55831,999,16062,.35470667E-4,.27E-6,0
ONEWEB-0673,2023-029AN,2026-06-12T20:53:46.215456,13.19727381,.00017256,87.9171,305.8269,94.6118,265.5212,0,U,55832,999,15833,-.11131736E-4,.8E-7,0
ONEWEB-0674,2023-029AP,2026-06-12T22:01:53.152320,13.14503983,.00017716,87.8949,290.5691,87.0183,273.1149,0,U,55833,999,15885,-.62937049E-3,-.221E-5,0
ONEWEB-0675,2023-029AQ,2026-06-12T21:15:23.151168,13.19724706,.00020694,87.9162,305.8343,105.0354,255.1008,0,U,55834,999,15835,.2254633E-3,.103E-5,0
ONEWEB-0720,2023-029AR,2026-06-12T22:53:10.892256,13.19724572,.00015739,87.9163,305.8207,102.1041,258.0268,0,U,55835,999,15828,.86839265E-4,.48E-6,0
TIANHUI 6A,2023-030A,2026-06-13T07:05:44.850336,14.01356897,.00022186,99.0156,172.5764,25.6406,334.4869,0,U,55836,999,16685,.1610295E-3,.199E-5,0
TIANHUI 6B,2023-030D,2026-06-13T07:05:41.548128,14.01358939,.00016973,99.0155,172.5747,45.8811,314.2493,0,U,55839,999,16684,.11082248E-3,.123E-5,0
LUCH-5X (OLYMP-K 2),2023-031A,2026-06-12T16:54:58.821408,1.00273743,.0000649,0.0260,57.9527,171.9697,346.8348,0,U,55841,999,1189,0,.47E-6,0
HORUS 2,2023-032A,2026-06-13T05:56:19.992768,15.23386915,.00022152,97.3541,239.7269,108.5959,251.5519,0,U,55844,999,18088,.24137674E-3,.5672E-4,0
SHIYAN-19 (SY-19),2023-034A,2026-06-13T07:40:52.150656,15.56506791,.00052868,97.3933,20.5473,21.3325,338.8149,0,U,55861,999,18196,.28402253E-3,.20052E-3,0
GAOFEN-13 02,2023-036A,2026-06-13T05:23:38.711040,1.00271282,.00041434,1.0199,0.5875,336.0639,154.1067,0,U,55912,999,1205,0,-.206E-5,0
STARLINK-5856,2023-037A,2026-06-13T02:11:13.861824,14.98332568,.00025326,70.0006,64.0717,271.0007,89.0862,0,U,55914,999,17846,.19576638E-4,.141E-5,0
STARLINK-5859,2023-037B,2026-06-13T03:23:19.269600,14.98335028,.00029969,70.0001,63.8411,270.2659,89.8157,0,U,55915,999,17846,.40041765E-4,.385E-5,0
STARLINK-5796,2023-037C,2026-06-13T02:05:13.224768,14.98333627,.0003114,70.0005,64.0563,265.2842,94.7962,0,U,55916,999,17777,.19024283E-4,.134E-5,0
STARLINK-5867,2023-037E,2026-06-13T03:35:20.588640,14.98333400,.0002982,70.0006,63.8731,263.5817,96.5002,0,U,55918,999,17778,.12324057E-4,.54E-6,0
STARLINK-5871,2023-037F,2026-06-13T03:23:33.404640,14.98333991,.00029951,70.0000,63.8417,270.8772,89.2044,0,U,55919,999,17778,.40315592E-4,.388E-5,0
STARLINK-5862,2023-037G,2026-06-13T01:52:52.891680,14.98334718,.00029571,70.0002,44.1451,268.0632,92.0188,0,U,55920,999,17826,-.29301545E-4,-.443E-5,0
STARLINK-5861,2023-037H,2026-06-13T02:59:16.871712,14.98332385,.0002945,70.0003,63.7841,270.7722,89.3100,0,U,55921,999,17778,-.25345959E-4,-.395E-5,0
STARLINK-5863,2023-037J,2026-06-13T03:05:17.455200,14.98331671,.00029571,70.0003,63.7981,271.8983,88.1837,0,U,55922,999,17778,.7561764E-4,.809E-5,0
STARLINK-5854,2023-037K,2026-06-13T03:11:17.898720,14.98337755,.00029753,70.0000,63.8115,270.0132,90.0686,0,U,55923,999,17778,-.7390933E-5,-.181E-5,0
STARLINK-5849,2023-037L,2026-06-13T01:46:52.039488,14.98333216,.0002873,70.0003,44.1290,269.9785,90.1045,0,U,55924,999,17826,-.22006289E-4,-.356E-5,0
STARLINK-5922,2023-037M,2026-06-13T02:53:16.004832,14.98332481,.00028939,70.0002,63.7686,269.6339,90.4488,0,U,55925,999,17778,.30086699E-4,.266E-5,0
STARLINK-5921,2023-037N,2026-06-13T01:34:50.819808,14.98319916,.00030885,70.0001,44.1031,266.1727,93.9079,0,U,55926,999,17826,.98359367E-4,.108E-4,0
STARLINK-5919,2023-037P,2026-06-13T02:41:29.363424,14.98334539,.00027939,70.0004,63.7411,261.6809,98.4033,0,U,55927,999,17777,-.86219842E-4,-.1122E-4,0
STARLINK-5930,2023-037Q,2026-06-13T02:35:14.201664,14.98331983,.00028931,70.0004,63.7254,270.6979,89.3848,0,U,55928,999,17778,-.16611102E-4,-.291E-5,0
STARLINK-5896,2023-037S,2026-06-13T02:28:53.265792,14.98355734,.00029255,70.0021,43.8362,270.7000,89.3824,0,U,55930,999,17827,.61754414E-3,.7288E-4,0
STARLINK-5897,2023-037T,2026-06-13T02:29:13.483392,14.98330799,.00031493,70.0002,63.7114,270.6652,89.4146,0,U,55931,999,17778,.28103881E-4,.242E-5,0
STARLINK-5848,2023-037U,2026-06-12T23:52:20.444448,14.98330558,.00027863,69.9999,23.9704,270.2369,89.8471,0,U,55932,999,17875,-.15663919E-4,-.28E-5,0
STARLINK-5852,2023-037V,2026-06-13T01:28:50.156832,14.98331841,.00028658,70.0004,44.0903,269.7005,90.3826,0,U,55933,999,17826,-.17166852E-4,-.298E-5,0
STARLINK-5927,2023-037W,2026-06-13T02:29:08.360736,14.98333095,.00028668,70.0001,43.8325,270.0061,90.0770,0,U,55934,999,17827,.33237831E-4,.304E-5,0
STARLINK-5920,2023-037X,2026-06-13T01:22:49.238112,14.98331082,.00031327,70.0002,44.0733,272.5861,87.4940,0,U,55935,999,17826,.32147066E-4,.291E-5,0
STARLINK-5882,2023-037Y,2026-06-12T23:58:23.428128,14.98306351,.00028846,69.9994,23.9864,267.6641,92.4188,0,U,55936,999,17875,-.21137304E-3,-.2613E-4,0
STARLINK-5913,2023-037Z,2026-06-13T01:16:48.912096,14.98332797,.00030867,70.0002,44.0590,266.8665,93.2141,0,U,55937,999,17826,-.47373202E-4,-.658E-5,0
STARLINK-5909,2023-037AA,2026-06-13T01:10:47.971776,14.98333751,.00028874,69.9998,44.0446,269.4804,90.6024,0,U,55938,999,17826,.4643725E-4,.461E-5,0
STARLINK-5918,2023-037AB,2026-06-13T00:58:46.908480,14.98331776,.00029144,69.9999,44.0153,268.3861,91.6965,0,U,55939,999,17826,-.22049801E-4,-.356E-5,0
STARLINK-5864,2023-037AC,2026-06-13T01:04:47.421120,14.98331637,.00027368,69.9998,44.0301,270.2925,89.7921,0,U,55940,999,17826,-.4580118E-5,-.148E-5,0
STARLINK-5914,2023-037AD,2026-06-13T01:40:51.843072,14.98312976,.00025871,70.0003,44.1157,272.5615,87.5248,0,U,55941,999,17826,.22543276E-4,.176E-5,0
STARLINK-5917,2023-037AE,2026-06-13T02:04:51.361248,14.98334440,.00029744,70.0002,43.7724,270.1975,89.8844,0,U,55942,999,17827,.40467485E-4,.39E-5,0
STARLINK-5932,2023-037AF,2026-06-13T02:16:52.784832,14.98332096,.00030394,69.9998,43.7924,269.7040,90.3771,0,U,55943,999,17827,.1905414E-4,.134E-5,0
STARLINK-5926,2023-037AG,2026-06-13T02:10:52.055328,14.98335106,.00029251,70.0005,43.7866,270.3013,89.7811,0,U,55944,999,17827,.4290745E-4,.419E-5,0
